IRIDIUM 57 [-]          
1 25273U 98019B   24018.47385142  .00000680  00000+0  23187-3 0  9992
2 25273  86.3972   1.2255 0002202  87.6627 272.4822 14.35049796350804
IRIDIUM 63 [-]          
1 25286U 98021B   24018.27451144  .00000812  00000+0  27543-3 0  9990
2 25286  86.3993 298.2455 0002247  90.1070 270.0384 14.35571773349801
IRIDIUM 69 [-]          
1 25319U 98026A   24018.36664062  .00001088  00000+0  34130-3 0  9993
2 25319  86.4003 313.0395 0000698 357.0189   3.1006 14.39756085348815
IRIDIUM 71 [-]          
1 25320U 98026B   24018.33079175  .00000955  00000+0  29681-3 0  9994
2 25320  86.3993 307.8540 0002849  37.8234 322.3165 14.40081987349324
IRIDIUM 73 [-]          
1 25344U 98032C   24018.62575993  .00000993  00000+0  25012-3 0  9994
2 25344  86.4405 265.3766 0001550  76.0076 284.1301 14.50249084355806
IRIDIUM 82 [-]          
1 25467U 98051A   24018.43694122  .00019024  00000+0  10532-2 0  9991
2 25467  86.3962 356.9098 0142240  53.2611 308.1587 15.05370596345770
IRIDIUM 2 [-]           
1 25527U 98066A   24018.56186756  .00058083  00000+0  98533-3 0  9993
2 25527  85.5147  39.3460 0005458 140.1223 220.0438 15.51262472383865
